CCSDS_OMM_VERS = 2.0
CREATION_DATE  = 
ORIGINATOR     = 

OBJECT_NAME    = KUIPER-00218
OBJECT_ID      = 2026-030S
CENTER_NAME    = EARTH
REF_FRAME      = TEME
TIME_SYSTEM    = UTC
MEAN_ELEMENT_THEORY = SGP/SGP4

EPOCH          = 2026-02-27T16:17:49.806816
MEAN_MOTION    = 15.34762274
ECCENTRICITY   = .0006384
INCLINATION    = 51.8827
RA_OF_ASC_NODE = 267.4753
ARG_OF_PERICENTER = 27.4726
MEAN_ANOMALY   = 332.6597

EPHEMERIS_TYPE = 0
CLASSIFICATION_TYPE = U
NORAD_CAT_ID   = 67780
ELEMENT_SET_NO = 999
REV_AT_EPOCH   = 355
BSTAR          = .5054E-3
MEAN_MOTION_DOT = .16957E-3
MEAN_MOTION_DDOT = 0

CCSDS_OMM_VERS = 2.0
CREATION_DATE  = 
ORIGINATOR     = 

OBJECT_NAME    = KUIPER-00220
OBJECT_ID      = 2026-030T
CENTER_NAME    = EARTH
REF_FRAME      = TEME
TIME_SYSTEM    = UTC
MEAN_ELEMENT_THEORY = SGP/SGP4

EPOCH          = 2026-02-27T16:24:15.221664
MEAN_MOTION    = 15.34274057
ECCENTRICITY   = .0008062
INCLINATION    = 51.8809
RA_OF_ASC_NODE = 267.4990
ARG_OF_PERICENTER = 29.2737
MEAN_ANOMALY   = 330.8699

EPHEMERIS_TYPE = 0
CLASSIFICATION_TYPE = U
NORAD_CAT_ID   = 67781
ELEMENT_SET_NO = 999
REV_AT_EPOCH   = 355
BSTAR          = .48353E-3
MEAN_MOTION_DOT = .15956E-3
MEAN_MOTION_DDOT = 0

CCSDS_OMM_VERS = 2.0
CREATION_DATE  = 
ORIGINATOR     = 

OBJECT_NAME    = KUIPER-00222
OBJECT_ID      = 2026-030U
CENTER_NAME    = EARTH
REF_FRAME      = TEME
TIME_SYSTEM    = UTC
MEAN_ELEMENT_THEORY = SGP/SGP4

EPOCH          = 2026-02-27T15:11:24.410688
MEAN_MOTION    = 15.32473667
ECCENTRICITY   = .0018124
INCLINATION    = 51.8815
RA_OF_ASC_NODE = 267.9048
ARG_OF_PERICENTER = 30.4868
MEAN_ANOMALY   = 329.7167

EPHEMERIS_TYPE = 0
CLASSIFICATION_TYPE = U
NORAD_CAT_ID   = 67782
ELEMENT_SET_NO = 999
REV_AT_EPOCH   = 354
BSTAR          = .18751E-3
MEAN_MOTION_DOT = .5621E-4
MEAN_MOTION_DDOT = 0

CCSDS_OMM_VERS = 2.0
CREATION_DATE  = 
ORIGINATOR     = 

OBJECT_NAME    = KUIPER-00223
OBJECT_ID      = 2026-030V
CENTER_NAME    = EARTH
REF_FRAME      = TEME
TIME_SYSTEM    = UTC
MEAN_ELEMENT_THEORY = SGP/SGP4

EPOCH          = 2026-02-27T16:31:18.497856
MEAN_MOTION    = 15.33778121
ECCENTRICITY   = .0012162
INCLINATION    = 51.8830
RA_OF_ASC_NODE = 267.5343
ARG_OF_PERICENTER = 31.4644
MEAN_ANOMALY   = 328.7066

EPHEMERIS_TYPE = 0
CLASSIFICATION_TYPE = U
NORAD_CAT_ID   = 67783
ELEMENT_SET_NO = 999
REV_AT_EPOCH   = 355
BSTAR          = .49492E-3
MEAN_MOTION_DOT = .16101E-3
MEAN_MOTION_DDOT = 0

CCSDS_OMM_VERS = 2.0
CREATION_DATE  = 
ORIGINATOR     = 

OBJECT_NAME    = KUIPER-00225
OBJECT_ID      = 2026-030W
CENTER_NAME    = EARTH
REF_FRAME      = TEME
TIME_SYSTEM    = UTC
MEAN_ELEMENT_THEORY = SGP/SGP4

EPOCH          = 2026-02-27T16:08:42.105120
MEAN_MOTION    = 15.35406019
ECCENTRICITY   = .0003604
INCLINATION    = 51.8801
RA_OF_ASC_NODE = 267.4308
ARG_OF_PERICENTER = 17.7898
MEAN_ANOMALY   = 342.3213

EPHEMERIS_TYPE = 0
CLASSIFICATION_TYPE = U
NORAD_CAT_ID   = 67784
ELEMENT_SET_NO = 999
REV_AT_EPOCH   = 355
BSTAR          = .5173E-3
MEAN_MOTION_DOT = .17727E-3
MEAN_MOTION_DDOT = 0

CCSDS_OMM_VERS = 2.0
CREATION_DATE  = 
ORIGINATOR     = 

OBJECT_NAME    = KUIPER-00226
OBJECT_ID      = 2026-030X
CENTER_NAME    = EARTH
REF_FRAME      = TEME
TIME_SYSTEM    = UTC
MEAN_ELEMENT_THEORY = SGP/SGP4

EPOCH          = 2026-02-27T15:22:11.816256
MEAN_MOTION    = 15.31424778
ECCENTRICITY   = .0019628
INCLINATION    = 51.8822
RA_OF_ASC_NODE = 267.9529
ARG_OF_PERICENTER = 42.7954
MEAN_ANOMALY   = 317.4554

EPHEMERIS_TYPE = 0
CLASSIFICATION_TYPE = U
NORAD_CAT_ID   = 67785
ELEMENT_SET_NO = 999
REV_AT_EPOCH   = 354
BSTAR          = .55521E-3
MEAN_MOTION_DOT = .1686E-3
MEAN_MOTION_DDOT = 0

CCSDS_OMM_VERS = 2.0
CREATION_DATE  = 
ORIGINATOR     = 

OBJECT_NAME    = KUIPER-00259
OBJECT_ID      = 2026-030Y
CENTER_NAME    = EARTH
REF_FRAME      = TEME
TIME_SYSTEM    = UTC
MEAN_ELEMENT_THEORY = SGP/SGP4

EPOCH          = 2026-02-27T16:20:06.903744
MEAN_MOTION    = 15.34594495
ECCENTRICITY   = .0007936
INCLINATION    = 51.8806
RA_OF_ASC_NODE = 267.4807
ARG_OF_PERICENTER = 22.4376
MEAN_ANOMALY   = 337.6955

EPHEMERIS_TYPE = 0
CLASSIFICATION_TYPE = U
NORAD_CAT_ID   = 67786
ELEMENT_SET_NO = 999
REV_AT_EPOCH   = 355
BSTAR          = .48955E-3
MEAN_MOTION_DOT = .16328E-3
MEAN_MOTION_DDOT = 0

CCSDS_OMM_VERS = 2.0
CREATION_DATE  = 
ORIGINATOR     = 

OBJECT_NAME    = KUIPER-00260
OBJECT_ID      = 2026-030Z
CENTER_NAME    = EARTH
REF_FRAME      = TEME
TIME_SYSTEM    = UTC
MEAN_ELEMENT_THEORY = SGP/SGP4

EPOCH          = 2026-02-27T16:00:39.366720
MEAN_MOTION    = 15.35956342
ECCENTRICITY   = .0000998
INCLINATION    = 51.8785
RA_OF_ASC_NODE = 267.3947
ARG_OF_PERICENTER = 84.5101
MEAN_ANOMALY   = 275.5999

EPHEMERIS_TYPE = 0
CLASSIFICATION_TYPE = U
NORAD_CAT_ID   = 67787
ELEMENT_SET_NO = 999
REV_AT_EPOCH   = 346
BSTAR          = .76721E-3
MEAN_MOTION_DOT = .26982E-3
MEAN_MOTION_DDOT = 0

CCSDS_OMM_VERS = 2.0
CREATION_DATE  = 
ORIGINATOR     = 

OBJECT_NAME    = KUIPER-00262
OBJECT_ID      = 2026-030AA
CENTER_NAME    = EARTH
REF_FRAME      = TEME
TIME_SYSTEM    = UTC
MEAN_ELEMENT_THEORY = SGP/SGP4

EPOCH          = 2026-02-27T15:57:15.715872
MEAN_MOTION    = 15.36261566
ECCENTRICITY   = .000117
INCLINATION    = 51.8800
RA_OF_ASC_NODE = 267.3815
ARG_OF_PERICENTER = 137.4682
MEAN_ANOMALY   = 222.6395

EPHEMERIS_TYPE = 0
CLASSIFICATION_TYPE = U
NORAD_CAT_ID   = 67788
ELEMENT_SET_NO = 999
REV_AT_EPOCH   = 355
BSTAR          = .77911E-3
MEAN_MOTION_DOT = .27682E-3
MEAN_MOTION_DDOT = 0

CCSDS_OMM_VERS = 2.0
CREATION_DATE  = 
ORIGINATOR     = 

OBJECT_NAME    = KUIPER-00266
OBJECT_ID      = 2026-030AB
CENTER_NAME    = EARTH
REF_FRAME      = TEME
TIME_SYSTEM    = UTC
MEAN_ELEMENT_THEORY = SGP/SGP4

EPOCH          = 2026-02-27T13:52:41.900736
MEAN_MOTION    = 15.31000531
ECCENTRICITY   = .0022441
INCLINATION    = 51.8813
RA_OF_ASC_NODE = 268.2842
ARG_OF_PERICENTER = 42.0709
MEAN_ANOMALY   = 318.1994

EPHEMERIS_TYPE = 0
CLASSIFICATION_TYPE = U
NORAD_CAT_ID   = 67789
ELEMENT_SET_NO = 999
REV_AT_EPOCH   = 353
BSTAR          = .72545E-3
MEAN_MOTION_DOT = .21905E-3
MEAN_MOTION_DDOT = 0

CCSDS_OMM_VERS = 2.0
CREATION_DATE  = 
ORIGINATOR     = 

OBJECT_NAME    = KUIPER-00268
OBJECT_ID      = 2026-030AC
CENTER_NAME    = EARTH
REF_FRAME      = TEME
TIME_SYSTEM    = UTC
MEAN_ELEMENT_THEORY = SGP/SGP4

EPOCH          = 2026-02-27T16:05:42.610848
MEAN_MOTION    = 15.35586554
ECCENTRICITY   = .0001842
INCLINATION    = 51.8831
RA_OF_ASC_NODE = 267.4235
ARG_OF_PERICENTER = 29.1937
MEAN_ANOMALY   = 330.9152

EPHEMERIS_TYPE = 0
CLASSIFICATION_TYPE = U
NORAD_CAT_ID   = 67790
ELEMENT_SET_NO = 999
REV_AT_EPOCH   = 355
BSTAR          = .76601E-3
MEAN_MOTION_DOT = .26618E-3
MEAN_MOTION_DDOT = 0

CCSDS_OMM_VERS = 2.0
CREATION_DATE  = 
ORIGINATOR     = 

OBJECT_NAME    = KUIPER-00270
OBJECT_ID      = 2026-030AD
CENTER_NAME    = EARTH
REF_FRAME      = TEME
TIME_SYSTEM    = UTC
MEAN_ELEMENT_THEORY = SGP/SGP4

EPOCH          = 2026-02-27T16:25:38.824896
MEAN_MOTION    = 15.34190340
ECCENTRICITY   = .0009943
INCLINATION    = 51.8809
RA_OF_ASC_NODE = 267.5062
ARG_OF_PERICENTER = 27.9042
MEAN_ANOMALY   = 332.2475

EPHEMERIS_TYPE = 0
CLASSIFICATION_TYPE = U
NORAD_CAT_ID   = 67791
ELEMENT_SET_NO = 999
REV_AT_EPOCH   = 355
BSTAR          = .78001E-3
MEAN_MOTION_DOT = .25952E-3
MEAN_MOTION_DDOT = 0

