KUIPER-00218            
1 67780U 26030S   26058.67904869  .00016957  00000+0  50540-3 0  9993
2 67780  51.8827 267.4753 0006384  27.4726 332.6597 15.34762274  3553
KUIPER-00220            
1 67781U 26030T   26058.68350951  .00015956  00000+0  48353-3 0  9999
2 67781  51.8809 267.4990 0008062  29.2737 330.8699 15.34274057  3554
KUIPER-00222            
1 67782U 26030U   26058.63292142  .00005621  00000+0  18751-3 0  9999
2 67782  51.8815 267.9048 0018124  30.4868 329.7167 15.32473667  3542
KUIPER-00223            
1 67783U 26030V   26058.68840854  .00016101  00000+0  49492-3 0  9995
2 67783  51.8830 267.5343 0012162  31.4644 328.7066 15.33778121  3555
KUIPER-00225            
1 67784U 26030W   26058.67270955  .00017727  00000+0  51730-3 0  9997
2 67784  51.8801 267.4308 0003604  17.7898 342.3213 15.35406019  3555
KUIPER-00226            
1 67785U 26030X   26058.64041454  .00016860  00000+0  55521-3 0  9994
2 67785  51.8822 267.9529 0019628  42.7954 317.4554 15.31424778  3541
KUIPER-00259            
1 67786U 26030Y   26058.68063546  .00016328  00000+0  48955-3 0  9997
2 67786  51.8806 267.4807 0007936  22.4376 337.6955 15.34594495  3557
KUIPER-00260            
1 67787U 26030Z   26058.66712230  .00026982  00000+0  76721-3 0  9996
2 67787  51.8785 267.3947 0000998  84.5101 275.5999 15.35956342  3466
KUIPER-00262            
1 67788U 26030AA  26058.66476523  .00027682  00000+0  77911-3 0  9999
2 67788  51.8800 267.3815 0001170 137.4682 222.6395 15.36261566  3555
KUIPER-00266            
1 67789U 26030AB  26058.57826274  .00021905  00000+0  72545-3 0  9992
2 67789  51.8813 268.2842 0022441  42.0709 318.1994 15.31000531  3537
KUIPER-00268            
1 67790U 26030AC  26058.67063207  .00026618  00000+0  76601-3 0  9997
2 67790  51.8831 267.4235 0001842  29.1937 330.9152 15.35586554  3555
KUIPER-00270            
1 67791U 26030AD  26058.68447714  .00025952  00000+0  78001-3 0  9994
2 67791  51.8809 267.5062 0009943  27.9042 332.2475 15.34190340  3559
